{
    "links": {
        "self": "http://www.neowsapp.com/rest/v1/neo/3841171?api_key=iIulBulltgU6a56xZRHN4H3l9WmuAYTsLGpBGhQ2"
    },
    "id": "3841171",
    "neo_reference_id": "3841171",
    "name": "(2019 GM19)",
    "designation": "2019 GM19",
    "nasa_jpl_url": "http://ssd.jpl.nasa.gov/sbdb.cgi?sstr=3841171",
    "absolute_magnitude_h": 21.2,
    "estimated_diameter": {
        "kilometers": {
            "estimated_diameter_min": 0.1529519353,
            "estimated_diameter_max": 0.3420109247
        },
        "meters": {
            "estimated_diameter_min": 152.9519353442,
            "estimated_diameter_max": 342.0109247198
        },
        "miles": {
            "estimated_diameter_min": 0.095039897,
            "estimated_diameter_max": 0.2125156703
        },
        "feet": {
            "estimated_diameter_min": 501.8108275547,
            "estimated_diameter_max": 1122.0831222578
        }
    },
    "is_potentially_hazardous_asteroid": false,
    "close_approach_data": [
        {
            "close_approach_date": "1946-04-03",
            "close_approach_date_full": "1946-Apr-03 04:59",
            "epoch_date_close_approach": -749415660000,
            "relative_velocity": {
                "kilometers_per_second": "9.8280074768",
                "kilometers_per_hour": "35380.8269165696",
                "miles_per_hour": "21984.2699249096"
            },
            "miss_distance": {
                "astronomical": "0.4460066904",
                "lunar": "173.4966025656",
                "kilometers": "66721650.889589448",
                "miles": "41458911.3875244624"
            },
            "orbiting_body": "Earth"
        },
        {
            "close_approach_date": "2008-03-28",
            "close_approach_date_full": "2008-Mar-28 11:45",
            "epoch_date_close_approach": 1206704700000,
            "relative_velocity": {
                "kilometers_per_second": "10.1461388684",
                "kilometers_per_hour": "36526.099926204",
                "miles_per_hour": "22695.8980347016"
            },
            "miss_distance": {
                "astronomical": "0.446248076",
                "lunar": "173.590501564",
                "kilometers": "66757761.66119812",
                "miles": "41481349.580529256"
            },
            "orbiting_body": "Earth"
        },
        {
            "close_approach_date": "2019-04-06",
            "close_approach_date_full": "2019-Apr-06 13:47",
            "epoch_date_close_approach": 1554558420000,
            "relative_velocity": {
                "kilometers_per_second": "9.9600973876",
                "kilometers_per_hour": "35856.3505951819",
                "miles_per_hour": "22279.7418462118"
            },
            "miss_distance": {
                "astronomical": "0.4696468445",
                "lunar": "182.6926225105",
                "kilometers": "70258167.589421215",
                "miles": "43656400.965854167"
            },
            "orbiting_body": "Earth"
        },
        {
            "close_approach_date": "2070-03-25",
            "close_approach_date_full": "2070-Mar-25 13:30",
            "epoch_date_close_approach": 3162979800000,
            "relative_velocity": {
                "kilometers_per_second": "11.5308834968",
                "kilometers_per_hour": "41511.1805885671",
                "miles_per_hour": "25793.4332940461"
            },
            "miss_distance": {
                "astronomical": "0.48541079",
                "lunar": "188.82479731",
                "kilometers": "72616420.2590173",
                "miles": "45121751.22554674"
            },
            "orbiting_body": "Earth"
        },
        {
            "close_approach_date": "2081-04-07",
            "close_approach_date_full": "2081-Apr-07 05:23",
            "epoch_date_close_approach": 3511228980000,
            "relative_velocity": {
                "kilometers_per_second": "10.1206620568",
                "kilometers_per_hour": "36434.3834043742",
                "miles_per_hour": "22638.9089547902"
            },
            "miss_distance": {
                "astronomical": "0.4689523633",
                "lunar": "182.4224693237",
                "kilometers": "70154274.681146171",
                "miles": "43591844.9061563198"
            },
            "orbiting_body": "Earth"
        }
    ],
    "orbital_data": {
        "orbit_id": "7",
        "orbit_determination_date": "2019-06-03 06:43:21",
        "first_observation_date": "2019-04-09",
        "last_observation_date": "2019-05-27",
        "data_arc_in_days": 48,
        "observations_used": 51,
        "orbit_uncertainty": "5",
        "minimum_orbit_intersection": ".438372",
        "jupiter_tisserand_invariant": "3.305",
        "epoch_osculation": "2459000.5",
        "eccentricity": ".4691907688133358",
        "semi_major_axis": "2.370861353194748",
        "inclination": "21.40949077625014",
        "ascending_node_longitude": "49.27843860866115",
        "orbital_period": "1333.391440645522",
        "perihelion_distance": "1.258475092139478",
        "perihelion_argument": "103.5970078903982",
        "aphelion_distance": "3.483247614250017",
        "perihelion_time": "2458520.149814512147",
        "mean_anomaly": "129.68889817675",
        "mean_motion": ".2699882337820593",
        "equinox": "J2000",
        "orbit_class": {
            "orbit_class_type": "AMO",
            "orbit_class_description": "Near-Earth asteroid orbits similar to that of 1221 Amor",
            "orbit_class_range": "1.017 AU < q (perihelion) < 1.3 AU"
        }
    },
    "is_sentry_object": false
}